ONEWEB-0435             
1 51632U 22012L   25300.91609389  .00000461  00000+0  12848-2 0  9994
2 51632  87.8773  82.5886 0001694 109.4032 250.7278 13.10374811178898
ONEWEB-0436             
1 51633U 22012M   25300.84754428  .00000011  00000+0 -38629-5 0  9992
2 51633  87.9123  52.0347 0001852 106.8090 253.3245 13.17650448183084
ONEWEB-0438             
1 51634U 22012N   25300.89948146 -.00000303  00000+0 -90544-3 0  9997
2 51634  87.8772  82.5928 0001409  91.4428 268.6861 13.10375710178928
ONEWEB-0439             
1 51635U 22012P   25300.90280450 -.00000156  00000+0 -48250-3 0  9990
2 51635  87.8775  82.5809 0001524  97.6382 262.4919 13.10375825178906
ONEWEB-0442             
1 51636U 22012Q   25300.83994361  .00000098  00000+0  21991-3 0  9992
2 51636  87.9117  52.0878 0001458  78.1556 281.9740 13.17648214183073
ONEWEB-0443             
1 51637U 22012R   25300.85935495 -.00000009  00000+0 -56725-4 0  9996
2 51637  87.9113  52.0900 0001373 102.6132 257.5153 13.17648495183129
ONEWEB-0444             
1 51638U 22012S   25300.89282952 -.00000548  00000+0 -16074-2 0  9993
2 51638  87.8770  82.5822 0001537  97.7618 262.3684 13.10373207178917
ONEWEB-0445             
1 51639U 22012T   25300.91443337  .00000409  00000+0  11339-2 0  9996
2 51639  87.8787  82.5377 0001680  89.2930 270.8390 13.10374512178922
